[{"OBJECT_NAME":"STARLINK-34954","OBJECT_ID":"2025-184C","EPOCH":"2026-03-09T16:13:06.629952","MEAN_MOTION":15.05646553,"ECCENTRICITY":9.353e-5,"INCLINATION":97.6022,"RA_OF_ASC_NODE":122.5664,"ARG_OF_PERICENTER":87.7211,"MEAN_ANOMALY":272.4123,"EPHEMERIS_TYPE":0,"CLASSIFICATION_TYPE":"U","NORAD_CAT_ID":65275,"ELEMENT_SET_NO":999,"REV_AT_EPOCH":3129,"BSTAR":-8.0689916e-5,"MEAN_MOTION_DOT":-1.225e-5,"MEAN_MOTION_DDOT":0},{"OBJECT_NAME":"COSMOS 2251 DEB","OBJECT_ID":"1993-036AL","EPOCH":"2026-03-09T15:08:47.217120","MEAN_MOTION":15.1034549,"ECCENTRICITY":0.0030621,"INCLINATION":74.0303,"RA_OF_ASC_NODE":257.926,"ARG_OF_PERICENTER":317.2462,"MEAN_ANOMALY":110.0671,"EPHEMERIS_TYPE":0,"CLASSIFICATION_TYPE":"U","NORAD_CAT_ID":33795,"ELEMENT_SET_NO":999,"REV_AT_EPOCH":91331,"BSTAR":0.001367,"MEAN_MOTION_DOT":0.00022707,"MEAN_MOTION_DDOT":0}]
